[
    {
        "Altitude(m)": 703504.2086980424,
        "Argument of Periapsis(deg)": 0.0034170363559881197,
        "Eccentricity": 0.0,
        "Inclination(deg)": 45.0,
        "Latitude(deg)": 24.76011695855399,
        "Longitude(deg)": 147.09521461591578,
        "Mean Anomaly(deg)": 36.187264994244224,
        "RAAN(deg)": 219.99677441756256,
        "Satellite Name": "Constellation 1 970",
        "Satellite Number": 970,
        "Semi-Major Axis(m)": 7083131.272910544,
        "Time(s)": 57
    },
    {
        "Altitude(m)": 703508.9509058467,
        "Argument of Periapsis(deg)": 0.003476984362233526,
        "Eccentricity": 0.0,
        "Inclination(deg)": 45.0,
        "Latitude(deg)": 24.798457872004075,
        "Longitude(deg)": 147.14305503956518,
        "Mean Anomaly(deg)": 36.247966134494135,
        "RAAN(deg)": 219.99671782839695,
        "Satellite Name": "Constellation 1 970",
        "Satellite Number": 970,
        "Semi-Major Axis(m)": 7083131.272910544,
        "Time(s)": 58
    },
    {
        "Altitude(m)": 703513.7028459446,
        "Argument of Periapsis(deg)": 0.003536932368478932,
        "Eccentricity": 0.0,
        "Inclination(deg)": 45.0,
        "Latitude(deg)": 24.836780558271414,
        "Longitude(deg)": 147.19092723380206,
        "Mean Anomaly(deg)": 36.308667274744025,
        "RAAN(deg)": 219.9966612392314,
        "Satellite Name": "Constellation 1 970",
        "Satellite Number": 970,
        "Semi-Major Axis(m)": 7083131.272910544,
        "Time(s)": 59
    },
    {
        "Altitude(m)": 703518.464481564,
        "Argument of Periapsis(deg)": 0.003596880374724337,
        "Eccentricity": 0.0,
        "Inclination(deg)": 45.0,
        "Latitude(deg)": 24.875084974567493,
        "Longitude(deg)": 147.2388315954049,
        "Mean Anomaly(deg)": 36.369368414993936,
        "RAAN(deg)": 219.99660465006582,
        "Satellite Name": "Constellation 1 970",
        "Satellite Number": 970,
        "Semi-Major Axis(m)": 7083131.272910544,
        "Time(s)": 60
    },
    {
        "Altitude(m)": 703523.2357758973,
        "Argument of Periapsis(deg)": 0.0036568283809697427,
        "Eccentricity": 0.0,
        "Inclination(deg)": 45.0,
        "Latitude(deg)": 24.91337107804211,
        "Longitude(deg)": 147.28676801686788,
        "Mean Anomaly(deg)": 36.430069555243875,
        "RAAN(deg)": 219.99654806090027,
        "Satellite Name": "Constellation 1 970",
        "Satellite Number": 970,
        "Semi-Major Axis(m)": 7083131.272910544,
        "Time(s)": 61
    },
    {
        "Altitude(m)": 703528.0166921052,
        "Argument of Periapsis(deg)": 0.003716776387215149,
        "Eccentricity": 0.0,
        "Inclination(deg)": 45.0,
        "Latitude(deg)": 24.951638825782105,
        "Longitude(deg)": 147.33473655878862,
        "Mean Anomaly(deg)": 36.49077069549371,
        "RAAN(deg)": 219.99649147173471,
        "Satellite Name": "Constellation 1 970",
        "Satellite Number": 970,
        "Semi-Major Axis(m)": 7083131.272910544,
        "Time(s)": 62
    },
    {
        "Altitude(m)": 703532.8071933254,
        "Argument of Periapsis(deg)": 0.003776724393460554,
        "Eccentricity": 0.0,
        "Inclination(deg)": 45.0,
        "Latitude(deg)": 24.989888174811835,
        "Longitude(deg)": 147.38273728177137,
        "Mean Anomaly(deg)": 36.55147183574362,
        "RAAN(deg)": 219.9964348825691,
        "Satellite Name": "Constellation 1 970",
        "Satellite Number": 970,
        "Semi-Major Axis(m)": 7083131.272910544,
        "Time(s)": 63
    },
    {
        "Altitude(m)": 703537.6072426578,
        "Argument of Periapsis(deg)": 0.003836672399705959,
        "Eccentricity": 0.0,
        "Inclination(deg)": 45.0,
        "Latitude(deg)": 25.028119082092815,
        "Longitude(deg)": 147.4307702464264,
        "Mean Anomaly(deg)": 36.61217297599356,
        "RAAN(deg)": 219.99637829340355,
        "Satellite Name": "Constellation 1 970",
        "Satellite Number": 970,
        "Semi-Major Axis(m)": 7083131.272910544,
        "Time(s)": 64
    },
    {
        "Altitude(m)": 703542.416803171,
        "Argument of Periapsis(deg)": 0.003896620405951365,
        "Eccentricity": 0.0,
        "Inclination(deg)": 45.0,
        "Latitude(deg)": 25.06633150452365,
        "Longitude(deg)": 147.47883551336955,
        "Mean Anomaly(deg)": 36.67287411624345,
        "RAAN(deg)": 219.996321704238,
        "Satellite Name": "Constellation 1 970",
        "Satellite Number": 970,
        "Semi-Major Axis(m)": 7083131.272910544,
        "Time(s)": 65
    },
    {
        "Altitude(m)": 703547.2358379071,
        "Argument of Periapsis(deg)": 0.003956568412196771,
        "Eccentricity": 0.0,
        "Inclination(deg)": 45.0,
        "Latitude(deg)": 25.104525398940016,
        "Longitude(deg)": 147.52693314322207,
        "Mean Anomaly(deg)": 36.73357525649331,
        "RAAN(deg)": 219.99626511507242,
        "Satellite Name": "Constellation 1 970",
        "Satellite Number": 970,
        "Semi-Major Axis(m)": 7083131.272910544,
        "Time(s)": 66
    },
    {
        "Altitude(m)": 703552.0643098736,
        "Argument of Periapsis(deg)": 0.004016516418442176,
        "Eccentricity": 0.0,
        "Inclination(deg)": 45.0,
        "Latitude(deg)": 25.142700722114764,
        "Longitude(deg)": 147.57506302851345,
        "Mean Anomaly(deg)": 36.79427639674324,
        "RAAN(deg)": 219.99620852590687,
        "Satellite Name": "Constellation 1 970",
        "Satellite Number": 970,
        "Semi-Major Axis(m)": 7083131.272910544,
        "Time(s)": 67
    },
    {
        "Altitude(m)": 703556.90218205,
        "Argument of Periapsis(deg)": 0.004076464424687581,
        "Eccentricity": 0.0,
        "Inclination(deg)": 45.0,
        "Latitude(deg)": 25.180857430756838,
        "Longitude(deg)": 147.6232255660694,
        "Mean Anomaly(deg)": 36.85497753699316,
        "RAAN(deg)": 219.99615193674126,
        "Satellite Name": "Constellation 1 970",
        "Satellite Number": 970,
        "Semi-Major Axis(m)": 7083131.272910544,
        "Time(s)": 68
    },
    {
        "Altitude(m)": 703561.7494173868,
        "Argument of Periapsis(deg)": 0.004136412430932987,
        "Eccentricity": 0.0,
        "Inclination(deg)": 45.0,
        "Latitude(deg)": 25.21899548151261,
        "Longitude(deg)": 147.67142064842855,
        "Mean Anomaly(deg)": 36.915678677243044,
        "RAAN(deg)": 219.9960953475757,
        "Satellite Name": "Constellation 1 970",
        "Satellite Number": 970,
        "Semi-Major Axis(m)": 7083131.272910544,
        "Time(s)": 69
    },
    {
        "Altitude(m)": 703566.6059788064,
        "Argument of Periapsis(deg)": 0.004196360437178394,
        "Eccentricity": 0.0,
        "Inclination(deg)": 45.0,
        "Latitude(deg)": 25.257114830964873,
        "Longitude(deg)": 147.7196483362312,
        "Mean Anomaly(deg)": 36.976379817492926,
        "RAAN(deg)": 219.99603875841015,
        "Satellite Name": "Constellation 1 970",
        "Satellite Number": 970,
        "Semi-Major Axis(m)": 7083131.272910544,
        "Time(s)": 70
    },
    {
        "Altitude(m)": 703571.4718291935,
        "Argument of Periapsis(deg)": 0.004256308443423799,
        "Eccentricity": 0.0,
        "Inclination(deg)": 45.0,
        "Latitude(deg)": 25.295215435632908,
        "Longitude(deg)": 147.76790869012135,
        "Mean Anomaly(deg)": 37.03708095774284,
        "RAAN(deg)": 219.99598216924457,
        "Satellite Name": "Constellation 1 970",
        "Satellite Number": 970,
        "Semi-Major Axis(m)": 7083131.272910544,
        "Time(s)": 71
    },
    {
        "Altitude(m)": 703576.3469314127,
        "Argument of Periapsis(deg)": 0.004316256449669204,
        "Eccentricity": 0.0,
        "Inclination(deg)": 45.0,
        "Latitude(deg)": 25.333297251972454,
        "Longitude(deg)": 147.81620177074686,
        "Mean Anomaly(deg)": 37.09778209799273,
        "RAAN(deg)": 219.99592558007902,
        "Satellite Name": "Constellation 1 970",
        "Satellite Number": 970,
        "Semi-Major Axis(m)": 7083131.272910544,
        "Time(s)": 72
    },
    {
        "Altitude(m)": 703581.2312482947,
        "Argument of Periapsis(deg)": 0.00437620445591461,
        "Eccentricity": 0.0,
        "Inclination(deg)": 45.0,
        "Latitude(deg)": 25.37136023637554,
        "Longitude(deg)": 147.86452763875872,
        "Mean Anomaly(deg)": 37.15848323824262,
        "RAAN(deg)": 219.99586899091346,
        "Satellite Name": "Constellation 1 970",
        "Satellite Number": 970,
        "Semi-Major Axis(m)": 7083131.272910544,
        "Time(s)": 73
    },
    {
        "Altitude(m)": 703586.1247426441,
        "Argument of Periapsis(deg)": 0.004436152462160016,
        "Eccentricity": 0.0,
        "Inclination(deg)": 45.0,
        "Latitude(deg)": 25.409404345170714,
        "Longitude(deg)": 147.91288618671396,
        "Mean Anomaly(deg)": 37.21918437849258,
        "RAAN(deg)": 219.99581240174786,
        "Satellite Name": "Constellation 1 970",
        "Satellite Number": 970,
        "Semi-Major Axis(m)": 7083131.272910544,
        "Time(s)": 74
    },
    {
        "Altitude(m)": 703591.0273772328,
        "Argument of Periapsis(deg)": 0.0044961004684054215,
        "Eccentricity": 0.0,
        "Inclination(deg)": 45.0,
        "Latitude(deg)": 25.447429534621804,
        "Longitude(deg)": 147.96127781146362,
        "Mean Anomaly(deg)": 37.27988551874241,
        "RAAN(deg)": 219.9957558125823,
        "Satellite Name": "Constellation 1 970",
        "Satellite Number": 970,
        "Semi-Major Axis(m)": 7083131.272910544,
        "Time(s)": 75
    }
]